STARLINK-2022           
1 47643U 21012Z   24210.19380300  .00000775  00000+0  70959-4 0  9995
2 47643  53.0550 177.9676 0001567  90.1658 269.9511 15.06395865190893
